ONEWEB-0533             
1 55141U 23004B   23359.98039949 -.00000255  00000+0 -74511-3 0  9992
2 55141  87.9061 170.4917 0001280  93.4006 266.7269 13.12444406 49450
ONEWEB-0541             
1 55142U 23004C   23360.06690319 -.00000274  00000+0 -80777-3 0  9990
2 55142  87.8961 200.7320 0001467  77.5407 282.5886 13.11419216 47458
ONEWEB-0543             
1 55143U 23004D   23359.86809671  .00000110  00000+0  24567-3 0  9992
2 55143  87.9099 155.4903 0001395 111.8514 248.2767 13.18687876 50510
ONEWEB-0544             
1 55144U 23004E   23360.46879832  .00000035  00000+0  55805-4 0  9993
2 55144  87.9128 155.3559 0001652  93.0576 267.0745 13.18684529 50590
ONEWEB-0560             
1 55145U 23004F   23360.46248867  .00000068  00000+0  13854-3 0  9995
2 55145  87.9221 155.2850 0001827 114.6507 245.4816 13.18684088 50607
ONEWEB-0565             
1 55146U 23004G   23359.92500732  .00000031  00000+0  44663-4 0  9990
2 55146  87.9151 155.4866 0002260  83.1653 276.9736 13.18686250 50527
ONEWEB-0567             
1 55147U 23004H   23359.99455733  .00000002  00000+0 -28034-4 0  9991
2 55147  87.9128 155.4295 0002129 106.6681 253.4685 13.18685436 50533
ONEWEB-0569             
1 55148U 23004J   23360.25001157 -.00796415  00000+0 -76816+0 0  9997
2 55148  87.4229 141.0166 0004907 105.4224 176.6239 13.83056401 51375
